start=new Date('2023-06-25T00:00:00.000Z').valueOf();
sats=[{"APOAPSIS":"560.089","COUNTRY_CODE":"US","ELEMENT_SET_NO":"999","PERIOD":"95.839","OBJECT_NAME":"STARLINK-5537","SEMIMAJOR_AXIS":"6937.243","OBJECT_ID":"2023-013BF","LAUNCH_DATE":"2023-01-26","REV_AT_EPOCH":"2307","MEAN_ANOMALY":"94.0193","SITE":"AFETR","NORAD_CAT_ID":"55384","CENTER_NAME":"EARTH","EPHEMERIS_TYPE":"0","GP_ID":"234506192","PERIAPSIS":"558.126","EPOCH":"2023-06-23T16:52:22.336320","FILE":"3940864","MEAN_ELEMENT_THEORY":"SGP4","OBJECT_TYPE":"PAYLOAD","ARG_OF_PERICENTER":"266.0487","RCS_SIZE":"LARGE","CLASSIFICATION_TYPE":"U","MEAN_MOTION_DOT":"0.00001229","RA_OF_ASC_NODE":"292.2961","TLE_LINE2":"2 55384  43.0043 292.2961 0001415 266.0487  94.0193 15.02527542 23077","MEAN_MOTION":"15.02527542","REF_FRAME":"TEME","MEAN_MOTION_DDOT":"0.0000000000000","TLE_LINE1":"1 55384U 23013BF  23174.70303630  .00001229  00000-0  10603-3 0  9990","ECCENTRICITY":"0.00014150","INCLINATION":"43.0043","BSTAR":"0.00010603000000","DECAY_DATE":null,"TIME_SYSTEM":"UTC"},{"OBJECT_NAME":"STARLINK-5556","SEMIMAJOR_AXIS":"6937.215","APOAPSIS":"560.087","COUNTRY_CODE":"US","PERIOD":"95.838","ELEMENT_SET_NO":"999","NORAD_CAT_ID":"55385","CENTER_NAME":"EARTH","SITE":"AFETR","EPHEMERIS_TYPE":"0","GP_ID":"234513943","OBJECT_ID":"2023-013BG","LAUNCH_DATE":"2023-01-26","REV_AT_EPOCH":"2312","MEAN_ANOMALY":"88.2037","CLASSIFICATION_TYPE":"U","MEAN_MOTION_DOT":"-0.00000179","RA_OF_ASC_NODE":"290.3767","TLE_LINE2":"2 55385  43.0018 290.3767 0001452 271.8639  88.2037 15.02536446 23128","MEAN_MOTION":"15.02536446","FILE":"3941147","MEAN_ELEMENT_THEORY":"SGP4","PERIAPSIS":"558.073","EPOCH":"2023-06-24T00:30:13.532544","OBJECT_TYPE":"PAYLOAD","ARG_OF_PERICENTER":"271.8639","RCS_SIZE":"LARGE","TLE_LINE1":"1 55385U 23013BG  23175.02098996 -.00000179  00000-0  18471-5 0  9990","MEAN_MOTION_DDOT":"0.0000000000000","ECCENTRICITY":"0.00014520","INCLINATION":"43.0018","BSTAR":"0.00000184710000","TIME_SYSTEM":"UTC","DECAY_DATE":null,"REF_FRAME":"TEME"},{"MEAN_MOTION":"15.02536689","RA_OF_ASC_NODE":"288.5967","TLE_LINE2":"2 55386  43.0032 288.5967 0001765 272.6451  87.4189 15.02536689 23177","MEAN_MOTION_DOT":"0.00000819","CLASSIFICATION_TYPE":"U","RCS_SIZE":"LARGE","ARG_OF_PERICENTER":"272.6451","OBJECT_TYPE":"PAYLOAD","MEAN_ELEMENT_THEORY":"SGP4","FILE":"3941474","EPOCH":"2023-06-24T08:33:39.712896","PERIAPSIS":"557.855","TIME_SYSTEM":"UTC","DECAY_DATE":null,"INCLINATION":"43.0032","BSTAR":"0.00007569300000","ECCENTRICITY":"0.00017650","TLE_LINE1":"1 55386U 23013BH  23175.35670964  .00000819  00000-0  75693-4 0  9996","MEAN_MOTION_DDOT":"0.0000000000000","REF_FRAME":"TEME","SEMIMAJOR_AXIS":"6937.214","OBJECT_NAME":"STARLINK-5555","ELEMENT_SET_NO":"999","PERIOD":"95.838","COUNTRY_CODE":"US","APOAPSIS":"560.304","GP_ID":"234520478","EPHEMERIS_TYPE":"0","NORAD_CAT_ID":"55386","CENTER_NAME":"EARTH","SITE":"AFETR","MEAN_ANOMALY":"87.4189","REV_AT_EPOCH":"2317","LAUNCH_DATE":"2023-01-26","OBJECT_ID":"2023-013BH"},{"SEMIMAJOR_AXIS":"6769.436","OBJECT_NAME":"STARLINK-5077","PERIOD":"92.382","ELEMENT_SET_NO":"999","APOAPSIS":"393.598","COUNTRY_CODE":"US","GP_ID":"234521137","SITE":"AFWTR","CENTER_NAME":"EARTH","NORAD_CAT_ID":"55391","EPHEMERIS_TYPE":"0","MEAN_ANOMALY":"149.5931","OBJECT_ID":"2023-014A","LAUNCH_DATE":"2023-01-31","REV_AT_EPOCH":"2278","RA_OF_ASC_NODE":"45.2405","TLE_LINE2":"2 55391  69.9991  45.2405 0003393 269.1351 149.5931 15.58741334 22785","MEAN_MOTION":"15.58741334","CLASSIFICATION_TYPE":"U","MEAN_MOTION_DOT":"-0.00911884","ARG_OF_PERICENTER":"269.1351","RCS_SIZE":"LARGE","PERIAPSIS":"389.004","EPOCH":"2023-06-24T14:00:01.000224","MEAN_ELEMENT_THEORY":"SGP4","FILE":"3941472","OBJECT_TYPE":"PAYLOAD","INCLINATION":"69.9991","BSTAR":"-0.01296200000000","DECAY_DATE":null,"TIME_SYSTEM":"UTC","TLE_LINE1":"1 55391U 23014A   23175.58334491 -.00911884  00000-0 -12962-1 0  9992","MEAN_MOTION_DDOT":"0.0000000000000","ECCENTRICITY":"0.00033930","REF_FRAME":"TEME"},{"OBJECT_ID":"2023-014B","REV_AT_EPOCH":"2275","LAUNCH_DATE":"2023-01-31","MEAN_ANOMALY":"96.0948","CENTER_NAME":"EARTH","NORAD_CAT_ID":"55392","SITE":"AFWTR","EPHEMERIS_TYPE":"0","GP_ID":"234520634","APOAPSIS":"361.707","COUNTRY_CODE":"US","PERIOD":"91.724","ELEMENT_SET_NO":"999","OBJECT_NAME":"STARLINK-5085","SEMIMAJOR_AXIS":"6737.253","REF_FRAME":"TEME","MEAN_MOTION_DDOT":"0.0000000000000","TLE_LINE1":"1 55392U 23014B   23175.35908713 -.00000308  00000-0 -79078-6 0  9998","ECCENTRICITY":"0.00038430","BSTAR":"-0.00000079078000","INCLINATION":"69.9978","TIME_SYSTEM":"UTC","DECAY_DATE":null,"MEAN_ELEMENT_THEORY":"SGP4","FILE":"3941472","EPOCH":"2023-06-24T08:37:05.128032","PERIAPSIS":"356.529","OBJECT_TYPE":"PAYLOAD","ARG_OF_PERICENTER":"263.9810","RCS_SIZE":"LARGE","CLASSIFICATION_TYPE":"U","MEAN_MOTION_DOT":"-0.00000308","TLE_LINE2":"2 55392  69.9978  45.7372 0003843 263.9810  96.0948 15.69923380 22757","RA_OF_ASC_NODE":"45.7372","MEAN_MOTION":"15.69923380"},{"GP_ID":"234521136","EPHEMERIS_TYPE":"0","SITE":"AFWTR","CENTER_NAME":"EARTH","NORAD_CAT_ID":"55393","MEAN_ANOMALY":"149.2379","REV_AT_EPOCH":"2278","LAUNCH_DATE":"2023-01-31","OBJECT_ID":"2023-014C","SEMIMAJOR_AXIS":"6769.442","OBJECT_NAME":"STARLINK-4786","ELEMENT_SET_NO":"999","PERIOD":"92.382","COUNTRY_CODE":"US","APOAPSIS":"393.604","DECAY_DATE":null,"TIME_SYSTEM":"UTC","INCLINATION":"69.9992","BSTAR":"-0.01297500000000","ECCENTRICITY":"0.00033930","TLE_LINE1":"1 55393U 23014C   23175.58334491 -.00912651  00000-0 -12975-1 0  9991","MEAN_MOTION_DDOT":"0.0000000000000","REF_FRAME":"TEME","MEAN_MOTION":"15.58739228","TLE_LINE2":"2 55393  69.9992  45.2422 0003393 268.2475 149.2379 15.58739228 22786","RA_OF_ASC_NODE":"45.2422","MEAN_MOTION_DOT":"-0.00912651","CLASSIFICATION_TYPE":"U","RCS_SIZE":"LARGE","ARG_OF_PERICENTER":"268.2475","OBJECT_TYPE":"PAYLOAD","PERIAPSIS":"389.010","EPOCH":"2023-06-24T14:00:01.000224","FILE":"3941472","MEAN_ELEMENT_THEORY":"SGP4"},{"MEAN_MOTION_DOT":"0.00000746","CLASSIFICATION_TYPE":"U","MEAN_MOTION":"15.69931314","TLE_LINE2":"2 55394  69.9975  46.6292 0003716 267.2119  92.8652 15.69931314 22702","RA_OF_ASC_NODE":"46.6292","OBJECT_TYPE":"PAYLOAD","FILE":"3941158","MEAN_ELEMENT_THEORY":"SGP4","EPOCH":"2023-06-24T01:02:27.103200","PERIAPSIS":"356.592","RCS_SIZE":"LARGE","ARG_OF_PERICENTER":"267.2119","ECCENTRICITY":"0.00037160","TLE_LINE1":"1 55394U 23014D   23175.04336925  .00000746  00000-0  79700-5 0  9991","MEAN_MOTION_DDOT":"0.0000000000000","TIME_SYSTEM":"UTC","DECAY_DATE":null,"BSTAR":"0.00000797000000","INCLINATION":"69.9975","REF_FRAME":"TEME","OBJECT_NAME":"STARLINK-5230","SEMIMAJOR_AXIS":"6737.231","COUNTRY_CODE":"US","APOAPSIS":"361.599","ELEMENT_SET_NO":"999","PERIOD":"91.724","EPHEMERIS_TYPE":"0","CENTER_NAME":"EARTH","NORAD_CAT_ID":"55394","SITE":"AFWTR","GP_ID":"234514080","REV_AT_EPOCH":"2270","LAUNCH_DATE":"2023-01-31","OBJECT_ID":"2023-014D","MEAN_ANOMALY":"92.8652"},{"OBJECT_ID":"2023-014E","REV_AT_EPOCH":"2266","LAUNCH_DATE":"2023-01-31","MEAN_ANOMALY":"96.4917","CENTER_NAME":"EARTH","NORAD_CAT_ID":"55395","SITE":"AFWTR","EPHEMERIS_TYPE":"0","GP_ID":"234506825","APOAPSIS":"361.420","COUNTRY_CODE":"US","ELEMENT_SET_NO":"999","PERIOD":"91.724","OBJECT_NAME":"STARLINK-5274","SEMIMAJOR_AXIS":"6737.250","REF_FRAME":"TEME","TLE_LINE1":"1 55395U 23014E   23174.78840331  .00000427  00000-0  53207-5 0  9993","MEAN_MOTION_DDOT":"0.0000000000000","ECCENTRICITY":"0.00034220","BSTAR":"0.00000532070000","INCLINATION":"69.9976","TIME_SYSTEM":"UTC","DECAY_DATE":null,"FILE":"3940876","MEAN_ELEMENT_THEORY":"SGP4","EPOCH":"2023-06-23T18:55:18.045984","PERIAPSIS":"356.809","OBJECT_TYPE":"PAYLOAD","ARG_OF_PERICENTER":"263.5889","RCS_SIZE":"LARGE","CLASSIFICATION_TYPE":"U","MEAN_MOTION_DOT":"0.00000427","TLE_LINE2":"2 55395  69.9976  47.3452 0003422 263.5889  96.4917 15.69924574 22666","RA_OF_ASC_NODE":"47.3452","MEAN_MOTION":"15.69924574"},{"ELEMENT_SET_NO":"999","PERIOD":"91.728","COUNTRY_CODE":"US","APOAPSIS":"361.120","SEMIMAJOR_AXIS":"6737.444","OBJECT_NAME":"STARLINK-5283","MEAN_ANOMALY":"85.7230","LAUNCH_DATE":"2023-01-31","REV_AT_EPOCH":"2275","OBJECT_ID":"2023-014F","GP_ID":"234520633","EPHEMERIS_TYPE":"0","NORAD_CAT_ID":"55396","CENTER_NAME":"EARTH","SITE":"AFWTR","RCS_SIZE":"LARGE","ARG_OF_PERICENTER":"274.3659","OBJECT_TYPE":"PAYLOAD","MEAN_ELEMENT_THEORY":"SGP4","FILE":"3941472","EPOCH":"2023-06-24T08:41:46.112064","PERIAPSIS":"357.498","MEAN_MOTION":"15.69856550","RA_OF_ASC_NODE":"45.7337","TLE_LINE2":"2 55396  69.9968  45.7337 0002688 274.3659  85.7230 15.69856550 22757","MEAN_MOTION_DOT":"-0.00006911","CLASSIFICATION_TYPE":"U","REF_FRAME":"TEME","TIME_SYSTEM":"UTC","DECAY_DATE":null,"BSTAR":"-0.00005591800000","INCLINATION":"69.9968","ECCENTRICITY":"0.00026880","MEAN_MOTION_DDOT":"0.0000000000000","TLE_LINE1":"1 55396U 23014F   23175.36233926 -.00006911  00000-0 -55918-4 0  9991"},{"CENTER_NAME":"EARTH","NORAD_CAT_ID":"55397","SITE":"AFWTR","EPHEMERIS_TYPE":"0","GP_ID":"234528428","OBJECT_ID":"2023-014G","LAUNCH_DATE":"2023-01-31","REV_AT_EPOCH":"2280","MEAN_ANOMALY":"93.6851","OBJECT_NAME":"STARLINK-5224","SEMIMAJOR_AXIS":"6737.257","APOAPSIS":"361.313","COUNTRY_CODE":"US","ELEMENT_SET_NO":"999","PERIOD":"91.724","TLE_LINE1":"1 55397U 23014G   23175.68032937 -.00001099  00000-0 -73753-5 0  9996","MEAN_MOTION_DDOT":"0.0000000000000","ECCENTRICITY":"0.00032510","INCLINATION":"69.9991","BSTAR":"-0.00000737530000","TIME_SYSTEM":"UTC","DECAY_DATE":null,"REF_FRAME":"TEME","CLASSIFICATION_TYPE":"U","MEAN_MOTION_DOT":"-0.00001099","TLE_LINE2":"2 55397  69.9991  44.8382 0003251 266.3973  93.6851 15.69921962 22804","RA_OF_ASC_NODE":"44.8382","MEAN_MOTION":"15.69921962","MEAN_ELEMENT_THEORY":"SGP4","FILE":"3941757","EPOCH":"2023-06-24T16:19:40.457568","PERIAPSIS":"356.932","OBJECT_TYPE":"PAYLOAD","ARG_OF_PERICENTER":"266.3973","RCS_SIZE":"LARGE"}];
